     2.10           NAVIGATION                              RINEX VERSION / TYPE
fic2rin                                 06/29/2008 01:26:18 PGM / RUN BY / DATE
                                                            END OF HEADER
 2 08  6 28  2  0  0.0  .204946845770D-03 -.147792889038D-11  .000000000000D+00
     .290000000000D+02  .985625000000D+02  .483484424781D-08  .213257195046D+01
     .528991222382D-05  .878545932937D-02  .862590968609D-05  .515374906158D+04
     .525600000000D+06  .633299350739D-07 -.675228087926D+00  .143423676491D-06
     .943217217195D+00  .203375000000D+03  .259323836558D+01 -.810248035797D-08
    -.261082303697D-09  .100000000000D+01  .148500000000D+04  .000000000000D+00
     .240000000000D+01  .000000000000D+00 -.172294676304D-07  .290000000000D+02
     .518406000000D+06  .400000000000D+01
 3 08  6 28  2  0  0.0  .248033087701D-03  .522959453519D-11  .000000000000D+00
     .410000000000D+02 -.273750000000D+02  .567023618810D-08  .174703056997D+01
    -.140443444252D-05  .107266395353D-01  .898912549019D-05  .515368649673D+04
     .525600000000D+06 -.307336449623D-06 -.181959412135D+01 -.447034835815D-07
     .925585863715D+00  .191000000000D+03  .819733541215D+00 -.854142721330D-08
    -.400730977768D-09  .100000000000D+01  .148500000000D+04  .000000000000D+00
     .240000000000D+01  .000000000000D+00 -.419095158577D-08  .410000000000D+02
     .518406000000D+06  .400000000000D+01
 4 08  6 28  2  0  0.0 -.101617071778D-03 -.943600753089D-11  .000000000000D+00
     .490000000000D+02  .905000000000D+02  .481055752189D-08 -.145526889610D+01
     .470504164696D-05  .805386598222D-02  .863336026669D-05  .515380109787D+04
     .525600000000D+06  .596046447754D-07 -.656408650398D+00 -.119209289551D-06
     .942528039413D+00  .205281250000D+03  .379804591129D+00 -.812426697976D-08
    -.860750139413D-10  .100000000000D+01  .148500000000D+04  .000000000000D+00
     .240000000000D+01  .000000000000D+00 -.605359673500D-08  .490000000000D+02
     .518406000000D+06  .400000000000D+01
 5 08  6 28  2  0  0.0 -.378449913114D-03  .128466126625D-10  .000000000000D+00
     .550000000000D+02 -.119375000000D+02  .538701010488D-08 -.180691775626D+01
    -.463798642159D-06  .891397334635D-02  .595860183239D-05  .515356115532D+04
     .525600000000D+06  .167638063431D-06 -.285216807620D+01  .596046447754D-07
     .943146700154D+00  .252656250000D+03  .123121239488D+01 -.831498920982D-08
     .343585740297D-09  .100000000000D+01  .148500000000D+04  .000000000000D+00
     .240000000000D+01  .000000000000D+00 -.419095158577D-08  .550000000000D+02
     .518406000000D+06  .400000000000D+01
 6 08  6 28  2  0  0.0  .154328998178D-03  .522959453519D-11  .000000000000D+00
     .130000000000D+03 -.128125000000D+02  .541629703908D-08 -.187847042394D+01
    -.540167093277D-06  .592188769951D-02  .906921923161D-05  .515372657204D+04
     .525600000000D+06  .484287738800D-07 -.175468517617D+01  .558793544769D-07
     .933124311299D+00  .187406250000D+03 -.164772784582D+01 -.827677333226D-08
    -.371801201298D-09  .100000000000D+01  .148500000000D+04  .000000000000D+00
     .340000000000D+01  .000000000000D+00 -.465661287308D-08  .130000000000D+03
     .518406000000D+06  .400000000000D+01
 7 08  6 28  2  0  0.0 -.131507404149D-04  .648014975013D-11  .000000000000D+00
     .490000000000D+02 -.357500000000D+02  .430482217027D-08  .521224102116D+00
    -.175833702087D-05  .183601374738D-02  .908598303795D-05  .515371276093D+04
     .525600000000D+06  .186264514923D-07  .247609007724D+01 -.651925802231D-07
     .962888925926D+00  .205750000000D+03  .261546125568D+01 -.795104547867D-08
     .472162524607D-09  .100000000000D+01  .148500000000D+04  .000000000000D+00
     .240000000000D+01  .000000000000D+00 -.107102096081D-07  .490000000000D+02
     .518406000000D+06  .400000000000D+01
 8 08  6 28  2  0  0.0 -.159410759807D-03 -.170530256582D-11  .000000000000D+00
     .125000000000D+03 -.287500000000D+02  .392980654936D-08 -.319718042751D+00
    -.154785811901D-05  .102888960391D-01  .921264290810D-05  .515373674965D+04
     .525600000000D+06  .111758708954D-06  .252952124220D+01 -.113621354103D-06
     .984096947337D+00  .211312500000D+03  .288069043931D+01 -.785532720591D-08
     .488591780380D-09  .100000000000D+01  .148500000000D+04  .000000000000D+00
     .485000000000D+01  .000000000000D+00 -.372529029846D-08  .125000000000D+03
     .518406000000D+06  .400000000000D+01
 9 08  6 28  2  0  0.0  .274134799838D-05  .170530256582D-11  .000000000000D+00
     .760000000000D+02 -.205000000000D+02  .427482092059D-08 -.716274118206D+00
    -.925734639168D-06  .200616325019D-01  .100955367088D-04  .515366593742D+04
     .525600000000D+06 -.195577740669D-06  .243964882885D+01  .240281224251D-06
     .971896533860D+00  .200218750000D+03  .141366833355D+01 -.822105672573D-08
     .575381109790D-09  .100000000000D+01  .148500000000D+04  .000000000000D+00
     .340000000000D+01  .000000000000D+00 -.558793544769D-08  .760000000000D+02
     .518406000000D+06  .400000000000D+01
10 08  6 28  2  0  0.0 -.250898301601D-05 -.227373675443D-12  .000000000000D+00
     .910000000000D+02  .307500000000D+02  .451340228704D-08  .296798923598D+01
     .147335231304D-05  .796772772446D-02  .292807817459D-05  .515366056824D+04
     .525600000000D+06  .931322574615D-08  .406339849206D+00 -.117346644402D-06
     .963512725898D+00  .324875000000D+03  .561354336901D+00 -.823355724642D-08
    -.700029159024D-10  .100000000000D+01  .148500000000D+04  .000000000000D+00
     .340000000000D+01  .000000000000D+00 -.232830643654D-08  .910000000000D+02
     .518406000000D+06  .400000000000D+01
11 08  6 28  2  0  0.0  .241361558437D-04 -.454747350886D-12  .000000000000D+00
     .630000000000D+02  .603437500000D+02  .619882963471D-08  .606596465349D-01
     .323168933392D-05  .811241590418D-02  .924244523048D-05  .515363721657D+04
     .525600000000D+06  .260770320892D-07 -.858457601588D+00  .875443220139D-07
     .890879476706D+00  .158750000000D+03  .594314146015D+00 -.890894252179D-08
    -.293940815243D-09  .100000000000D+01  .148500000000D+04  .000000000000D+00
     .240000000000D+01  .000000000000D+00 -.116415321827D-07  .630000000000D+02
     .518406000000D+06  .400000000000D+01
12 08  6 28  2  0  0.0 -.357960350811D-03  .568434188608D-12  .000000000000D+00
     .440000000000D+02 -.181562500000D+02  .498413618071D-08  .514211022062D+00
    -.894069671631D-06  .338082876988D-02  .639073550701D-05  .515357337379D+04
     .525600000000D+06 -.298023223877D-07 -.275809009814D+01 -.540167093277D-07
     .964361884012D+00  .260281250000D+03 -.921812611778D+00 -.821391357104D-08
     .237509893240D-09  .100000000000D+01  .148500000000D+04  .000000000000D+00
     .240000000000D+01  .000000000000D+00 -.116415321827D-07  .440000000000D+02
     .518406000000D+06  .400000000000D+01
13 08  6 28  2  0  0.0  .261595938355D-03  .159161572810D-11  .000000000000D+00
     .230000000000D+02 -.749375000000D+02  .348157359294D-08  .263711374233D+01
    -.385381281376D-05  .382464204449D-02  .663660466671D-05  .515361938858D+04
     .525600000000D+06  .130385160446D-07  .147620563983D+01  .465661287308D-07
     .995291982066D+00  .269718750000D+03  .148885996899D+01 -.764603277367D-08
    -.596453416107D-10  .100000000000D+01  .148500000000D+04  .000000000000D+00
     .240000000000D+01  .000000000000D+00 -.111758708954D-07  .230000000000D+02
     .518406000000D+06  .400000000000D+01
14 08  6 28  2  0  0.0 -.250504352152D-03  .432009983342D-11  .000000000000D+00
     .150000000000D+02 -.895312500000D+02  .363265131451D-08  .241722321048D+01
    -.446289777756D-05  .381134776399D-02  .728480517864D-05  .515371150780D+04
     .525600000000D+06  .558793544769D-07  .145870866416D+01 -.894069671631D-07
     .989020817990D+00  .252343750000D+03 -.217879653811D+01 -.779353891789D-08
    -.696457581682D-10  .100000000000D+01  .148500000000D+04  .000000000000D+00
     .240000000000D+01  .000000000000D+00 -.884756445885D-08  .150000000000D+02
     .518406000000D+06  .400000000000D+01
15 08  6 28  2  0  0.0 -.133724417537D-03 -.625277607469D-11  .000000000000D+00
     .130000000000D+02 -.759375000000D+02  .443661337418D-08 -.294344987507D+01
    -.401027500629D-05  .659643788822D-03  .644102692604D-05  .515367334175D+04
     .525600000000D+06  .204890966415D-07  .141665189061D+01 -.149011611938D-07
     .957403912082D+00  .252218750000D+03 -.126121794773D+01 -.816962601200D-08
    -.129648257513D-09  .100000000000D+01  .148500000000D+04  .000000000000D+00
     .240000000000D+01  .000000000000D+00 -.977888703346D-08  .130000000000D+02
     .518406000000D+06  .400000000000D+01
16 08  6 28  2  0  0.0  .119400210679D-03 -.159161572810D-11  .000000000000D+00
     .400000000000D+02 -.127500000000D+02  .486984570576D-08 -.204102429548D+01
    -.653788447380D-06  .479141634423D-02  .698119401932D-05  .515361379242D+04
     .525600000000D+06 -.130385160446D-06 -.274167933767D+01 -.353902578354D-07
     .966025605153D+00  .252406250000D+03 -.466892099999D+00 -.808890836407D-08
     .263225250103D-09  .100000000000D+01  .148500000000D+04  .000000000000D+00
     .240000000000D+01  .000000000000D+00 -.977888703346D-08  .400000000000D+02
     .518406000000D+06  .400000000000D+01
17 08  6 28  2  0  0.0  .385819002986D-04 -.113686837722D-12  .000000000000D+00
     .240000000000D+02 -.821875000000D+01  .467305179422D-08  .298863899468D+01
    -.495463609695D-06  .363152392674D-02  .928528606892D-05  .515377134323D+04
     .525600000000D+06 -.912696123123D-07 -.170062165610D+01  .745058059692D-08
     .959213373510D+00  .199656250000D+03 -.276408540122D+01 -.792425864861D-08
    -.414302971667D-09  .100000000000D+01  .148500000000D+04  .000000000000D+00
     .240000000000D+01  .000000000000D+00 -.102445483208D-07  .240000000000D+02
     .518406000000D+06  .400000000000D+01
